NORAD_CAT_ID,OBJECT_NAME,OBJECT_TYPE,EPOCH,MEAN_MOTION,ECCENTRICITY,INCLINATION,RA_OF_ASC_NODE,ARG_OF_PERICENTER,MEAN_ANOMALY,BSTAR,MEAN_MOTION_DOT,MEAN_MOTION_DDOT,TLE_LINE0,TLE_LINE1,TLE_LINE2,SEMIMAJOR_AXIS,PERIOD,APOGEE,PERIGEE,DECAYED
52867.0,STARLINK-4126,PAYLOAD,2023-06-30 12:18:29,15.0883472,0.0001262,53.2176,117.7719,86.5417,273.5719,-5.3448e-06,-3.73e-06,0.0,0 STARLINK-4126,1 52867U 22062AP  23181.51284659 -.00000373  00000-0 -53448-5 0  9999,2 52867  53.2176 117.7719 0001262  86.5417 273.5719 15.08834720 57991,6917.897,95.438,540.635,538.888,0.0
52867.0,STARLINK-4126,PAYLOAD,2023-07-02 02:27:44,15.08845241,0.000101,53.2173,110.636,91.4217,268.6891,7.5931e-05,9.21e-06,0.0,0 STARLINK-4126,1 52867U 22062AP  23183.10260182  .00000921  00000-0  75931-4 0  9998,2 52867  53.2173 110.6360 0001010  91.4217 268.6891 15.08845241 58230,6917.864,95.437,540.428,539.031,0.0
52867.0,STARLINK-4126,PAYLOAD,2023-07-02 12:00:04,15.08839393,0.0001011,53.2173,108.8518,89.0943,271.0165,3.6965e-05,3.01e-06,0.0,0 STARLINK-4126,1 52867U 22062AP  23183.50004693  .00000301  00000-0  36965-4 0  9991,2 52867  53.2173 108.8518 0001011  89.0943 271.0165 15.08839393 58293,6917.882,95.438,540.447,539.048,0.0
52867.0,STARLINK-4126,PAYLOAD,2023-07-04 02:09:19,15.08848363,0.0001282,53.2178,101.7155,102.3001,257.8134,6.196e-05,6.99e-06,0.0,0 STARLINK-4126,1 52867U 22062AP  23185.08980413  .00000699  00000-0  61960-4 0  9992,2 52867  53.2178 101.7155 0001282 102.3001 257.8134 15.08848363 58533,6917.855,95.437,540.607,538.833,0.0
52867.0,STARLINK-4126,PAYLOAD,2023-07-05 00:24:43,15.08838055,0.0001238,53.2169,97.5529,90.0494,270.064,-6.8407e-06,-3.97e-06,0.0,0 STARLINK-4126,1 52867U 22062AP  23186.01717337 -.00000397  00000-0 -68407-5 0  9990,2 52867  53.2169  97.5529 0001238  90.0494 270.0640 15.08838055 58671,6917.886,95.438,540.608,538.895,0.0
52867.0,STARLINK-4126,PAYLOAD,2023-07-06 01:50:53,15.08846804,0.0001236,53.2168,92.7932,91.837,268.2763,5.5458e-05,5.95e-06,0.0,0 STARLINK-4126,1 52867U 22062AP  23187.07700543  .00000595  00000-0  55458-4 0  9997,2 52867  53.2168  92.7932 0001236  91.8370 268.2763 15.08846804 58839,6917.86,95.437,540.58,538.87,0.0
52867.0,STARLINK-4126,PAYLOAD,2023-07-06 11:23:12,15.08841733,0.0001078,53.2173,91.008,95.0167,265.0948,-1.5436e-05,-5.33e-06,0.0,0 STARLINK-4126,1 52867U 22062AP  23187.47444957 -.00000533  00000-0 -15436-4 0  9991,2 52867  53.2173  91.0080 0001078  95.0167 265.0948 15.08841733 58897,6917.875,95.437,540.486,538.994,0.0
52867.0,STARLINK-4126,PAYLOAD,2023-07-07 17:35:32,15.0883891,0.0001273,53.2185,85.3579,88.1326,271.9812,2.3248e-05,8.2e-07,0.0,0 STARLINK-4126,1 52867U 22062AP  23188.73301211  .00000082  00000-0  23248-4 0  9993,2 52867  53.2185  85.3579 0001273  88.1326 271.9812 15.08838910 59087,6917.884,95.438,540.629,538.868,0.0
52867.0,STARLINK-4126,PAYLOAD,2023-07-08 03:07:50,15.08847378,0.0001185,53.2179,83.5749,89.4061,270.7067,5.6709e-05,6.15e-06,0.0,0 STARLINK-4126,1 52867U 22062AP  23189.13044541  .00000615  00000-0  56709-4 0  9998,2 52867  53.2179  83.5749 0001185  89.4061 270.7067 15.08847378 59145,6917.858,95.437,540.543,538.903,0.0
52867.0,STARLINK-4126,PAYLOAD,2023-07-08 09:29:23,15.0883681,0.0001439,53.2177,82.3852,91.4014,268.7143,-4.193e-05,-9.55e-06,0.0,0 STARLINK-4126,1 52867U 22062AP  23189.39541575 -.00000955  00000-0 -41930-4 0  9994,2 52867  53.2177  82.3852 0001439  91.4014 268.7143 15.08836810 59183,6917.89,95.438,540.751,538.76,0.0
52867.0,STARLINK-4126,PAYLOAD,2023-07-10 02:49:25,15.08844686,0.0001008,53.2176,74.6547,100.7557,259.3549,8.9812e-05,1.142e-05,0.0,0 STARLINK-4126,1 52867U 22062AP  23191.11765180  .00001142  00000-0  89812-4 0  9995,2 52867  53.2176  74.6547 0001008 100.7557 259.3549 15.08844686 59440,6917.866,95.437,540.428,539.034,0.0
52867.0,STARLINK-4126,PAYLOAD,2023-07-11 01:04:49,15.08838704,9.48e-05,53.2175,70.4915,100.5303,259.5796,0.0001676,2.381e-05,0.0,0 STARLINK-4126,1 52867U 22062AP  23192.04501536  .00002381  00000-0  16760-3 0  9998,2 52867  53.2175  70.4915 0000948 100.5303 259.5796 15.08838704 59586,6917.884,95.438,540.405,539.094,0.0
52867.0,STARLINK-4126,PAYLOAD,2023-07-12 08:52:32,15.08838909,0.0001214,53.2189,64.5434,88.4115,271.7016,-1.6801e-05,-5.55e-06,0.0,0 STARLINK-4126,1 52867U 22062AP  23193.36982025 -.00000555  00000-0 -16801-4 0  9990,2 52867  53.2189  64.5434 0001214  88.4115 271.7016 15.08838909 59783,6917.884,95.438,540.589,538.909,0.0
52867.0,STARLINK-4126,PAYLOAD,2023-07-13 00:46:23,15.08843891,0.0001014,53.2181,61.5697,88.5303,271.5805,4.0775e-05,3.61e-06,0.0,0 STARLINK-4126,1 52867U 22062AP  23194.03221608  .00000361  00000-0  40775-4 0  9998,2 52867  53.2181  61.5697 0001014  88.5303 271.5805 15.08843891 59882,6917.868,95.437,540.435,539.032,0.0
52867.0,STARLINK-4126,PAYLOAD,2023-07-14 18:06:25,15.08839982,0.0001077,53.219,53.8378,91.2555,268.8561,8.6885e-05,1.095e-05,0.0,0 STARLINK-4126,1 52867U 22062AP  23195.75445751  .00001095  00000-0  86885-4 0  9992,2 52867  53.2190  53.8378 0001077  91.2555 268.8561 15.08839982 60146,6917.88,95.438,540.49,539.0,0.0
52867.0,STARLINK-4126,PAYLOAD,2023-07-15 02:03:19,15.0885626,0.0001067,53.2187,52.352,88.6985,271.413,0.00012449,1.695e-05,0.0,0 STARLINK-4126,1 52867U 22062AP  23196.08564565  .00001695  00000-0  12449-3 0  9994,2 52867  53.2187  52.3520 0001067  88.6985 271.4130 15.08856260 60196,6917.831,95.437,540.434,538.958,0.0
52867.0,STARLINK-4126,PAYLOAD,2023-07-15 16:21:49,15.08833034,9.11e-05,53.2188,49.6761,89.974,270.1356,-3.0605e-05,-7.75e-06,0.0,0 STARLINK-4126,1 52867U 22062AP  23196.68182542 -.00000775  00000-0 -30605-4 0  9996,2 52867  53.2188  49.6761 0000911  89.9740 270.1356 15.08833034 60283,6917.902,95.438,540.397,539.136,0.0
52867.0,STARLINK-4126,PAYLOAD,2023-07-16 01:54:07,15.08844765,0.0001045,53.2188,47.8917,94.8866,265.2246,6.7399e-05,7.85e-06,0.0,0 STARLINK-4126,1 52867U 22062AP  23197.07925530  .00000785  00000-0  67399-4 0  9991,2 52867  53.2188  47.8917 0001045  94.8866 265.2246 15.08844765 60342,6917.866,95.437,540.454,539.008,0.0
52867.0,STARLINK-4126,PAYLOAD,2023-07-16 06:40:17,15.08840767,9.81e-05,53.2187,47.0004,92.564,267.5465,5.3085e-06,-2.03e-06,0.0,0 STARLINK-4126,1 52867U 22062AP  23197.27797984 -.00000203  00000-0  53085-5 0  9997,2 52867  53.2187  47.0004 0000981  92.5640 267.5465 15.08840767 60372,6917.878,95.438,540.422,539.064,0.0
52867.0,STARLINK-4126,PAYLOAD,2023-07-16 16:12:36,15.08823751,0.0001145,53.2196,45.2181,99.7473,260.3649,0.00015509,2.18e-05,0.0,0 STARLINK-4126,1 52867U 22062AP  23197.67542662  .00002180  00000-0  15509-3 0  9994,2 52867  53.2196  45.2181 0001145  99.7473 260.3649 15.08823751 60430,6917.93,95.439,540.587,539.003,0.0
52867.0,STARLINK-4126,PAYLOAD,2023-07-17 00:09:31,15.08843781,0.0001006,53.2185,43.7295,91.612,268.4987,-9.3939e-07,-3.03e-06,0.0,0 STARLINK-4126,1 52867U 22062AP  23198.00661956 -.00000303  00000-0 -93939-6 0  9993,2 52867  53.2185  43.7295 0001006  91.6120 268.4987 15.08843781 60487,6917.869,95.437,540.43,539.038,0.0
52867.0,STARLINK-4126,PAYLOAD,2023-07-18 00:00:18,15.08857126,0.0001014,53.2177,39.269,90.206,269.9048,0.0002896,4.326e-05,0.0,0 STARLINK-4126,1 52867U 22062AP  23199.00021110  .00004326  00000-0  28960-3 0  9992,2 52867  53.2177  39.2690 0001014  90.2060 269.9048 15.08857126 60633,6917.828,95.436,540.395,538.992,0.0
52867.0,STARLINK-4126,PAYLOAD,2023-07-18 15:54:10,15.08834861,9.89e-05,53.2178,36.2956,95.8823,264.2281,5.4755e-05,5.84e-06,0.0,0 STARLINK-4126,1 52867U 22062AP  23199.66262385  .00000584  00000-0  54755-4 0  9999,2 52867  53.2178  36.2956 0000989  95.8823 264.2281 15.08834861 60733,6917.896,95.438,540.445,539.077,0.0
52867.0,STARLINK-4126,PAYLOAD,2023-07-18 22:15:42,15.0884089,0.0001118,53.2173,35.1059,101.5626,258.5492,7.9356e-05,9.75e-06,0.0,0 STARLINK-4126,1 52867U 22062AP  23199.92758067  .00000975  00000-0  79356-4 0  9993,2 52867  53.2173  35.1059 0001118 101.5626 258.5492 15.08840890 60774,6917.878,95.437,540.516,538.969,0.0
52867.0,STARLINK-4126,PAYLOAD,2023-07-19 17:20:21,15.08828945,0.0001362,53.2184,31.537,114.6877,245.4257,-0.00013785,-2.48e-05,0.0,0 STARLINK-4126,1 52867U 22062AP  23200.72246940 -.00002480  00000-0 -13785-3 0  9994,2 52867  53.2184  31.5370 0001362 114.6877 245.4257 15.08828945 60890,6917.914,95.438,540.721,538.837,0.0
52867.0,STARLINK-4126,PAYLOAD,2023-07-20 15:35:45,15.08847933,8.86e-05,53.2173,27.3737,104.2511,255.8579,0.0002993,4.48e-05,0.0,0 STARLINK-4126,1 52867U 22062AP  23201.64982671  .00004480  00000-0  29930-3 0  9993,2 52867  53.2173  27.3737 0000886 104.2511 255.8579 15.08847933 61035,6917.856,95.437,540.334,539.108,0.0
52867.0,STARLINK-4126,PAYLOAD,2023-07-21 15:26:32,15.08843242,9.35e-05,53.2176,22.9143,71.1947,288.9147,0.00019451,2.809e-05,0.0,0 STARLINK-4126,1 52867U 22062AP  23202.64343064  .00002809  00000-0  19451-3 0  9991,2 52867  53.2176  22.9143 0000935  71.1947 288.9147 15.08843242 61183,6917.87,95.437,540.382,539.089,0.0
52867.0,STARLINK-4126,PAYLOAD,2023-07-24 13:23:30,15.08842283,9.56e-05,53.2179,9.8306,71.3569,288.7526,8.1929e-05,1.016e-05,0.0,0 STARLINK-4126,1 52867U 22062AP  23205.55798946  .00001016  00000-0  81929-4 0  9996,2 52867  53.2179   9.8306 0000956  71.3569 288.7526 15.08842283 61134,6917.873,95.437,540.4,539.077,0.0
52867.0,STARLINK-4126,PAYLOAD,2023-07-25 13:14:17,15.08836572,8.57e-05,53.2178,5.37,81.4028,278.7061,5.8496e-05,6.43e-06,0.0,0 STARLINK-4126,1 52867U 22062AP  23206.55159372  .00000643  00000-0  58496-4 0  9999,2 52867  53.2178   5.3700 0000857  81.4028 278.7061 15.08836572 61287,6917.891,95.438,540.349,539.163,0.0
52867.0,STARLINK-4126,PAYLOAD,2023-07-26 13:05:04,15.08842546,0.0001061,53.218,0.91,98.6636,261.4476,0.00016954,2.412e-05,0.0,0 STARLINK-4126,1 52867U 22062AP  23207.54519214  .00002412  00000-0  16954-3 0  9992,2 52867  53.2180   0.9100 0001061  98.6636 261.4476 15.08842546 61432,6917.873,95.437,540.472,539.004,0.0
